     2.11           N: GPS NAV DATA                         RINEX VERSION / TYPE
teqc  2019Feb25                         20221121 12:23:51UTCPGM / RUN BY / DATE
OSX ker:10.11.6|Core i5|gcc 4.3 -m64|OSX ker:10.10+|=+      COMMENT
    6.5193D-09  2.2352D-08 -5.9605D-08 -1.1921D-07          ION ALPHA
    8.6016D+04  9.8304D+04 -6.5536D+04 -5.2429D+05          ION BETA
    6.519258022308D-09 1.243449787580D-14   589824     1534 DELTA-UTC: A0,A1,T,W
                                                            END OF HEADER
21 09  6  3 23 59 44.0 1.035025343299D-05-2.160049916711D-12 0.000000000000D+00
    0.000000000000D+00 6.643750000000D+01 4.678052002500D-09-2.160703986542D+00
    3.226101398468D-06 1.532319642138D-02 1.007318496704D-05 5.153615791321D+03
    3.455840000000D+05 2.793967723846D-08-5.038847222155D-01-1.695007085800D-07
    9.342040662635D-01 1.715937500000D+02-2.597186734658D+00-7.856041521377D-09
   -8.428922527028D-11 1.000000000000D+00 1.534000000000D+03 0.000000000000D+00
    2.000000000000D+00 0.000000000000D+00-1.210719347000D-08 0.000000000000D+00
    3.414060000000D+05 4.000000000000D+00
10 09  6  3 23 59 44.0-1.699756830931D-05-5.684341886081D-13 0.000000000000D+00
    4.000000000000D+00 8.184375000000D+01 4.542689221240D-09 1.449099238057D+00
    4.258006811142D-06 8.589323493652D-03 3.833323717117D-06 5.153615520477D+03
    3.455840000000D+05-1.098960638046D-07 5.486608805337D-01 5.587935447693D-08
    9.584667761941D-01 3.057187500000D+02 6.259003452731D-01-8.343561828555D-09
    1.339341503235D-10 1.000000000000D+00 1.534000000000D+03 0.000000000000D+00
    2.000000000000D+00 0.000000000000D+00-2.793967723846D-09 4.000000000000D+00
    3.385560000000D+05 4.000000000000D+00
